start=new Date('2023-01-21T00:00:00.000Z').valueOf();
sats=[{"EPOCH":"2023-01-20T14:06:53.138592","MEAN_MOTION_DOT":"0.00023426","CLASSIFICATION_TYPE":"U","TIME_SYSTEM":"UTC","ARG_OF_PERICENTER":"92.1334","INCLINATION":"53.2178","ECCENTRICITY":"0.00005470","MEAN_MOTION":"15.08846743","TLE_LINE1":"1 53589U 22104B   23020.58811503  .00023426  00000-0  14848-2 0  9991","SITE":"AFETR","MEAN_MOTION_DDOT":"0.0000000000000","GP_ID":"223554140","MEAN_ANOMALY":"267.9721","PERIAPSIS":"539.346","BSTAR":"0.00148480000000","DECAY_DATE":null,"REV_AT_EPOCH":"2220","FILE":"3756136","ELEMENT_SET_NO":"999","APOAPSIS":"540.103","OBJECT_NAME":"STARLINK-4673","NORAD_CAT_ID":"53589","OBJECT_TYPE":"PAYLOAD","TLE_LINE2":"2 53589  53.2178 340.2434 0000547  92.1334 267.9721 15.08846743 22202","REF_FRAME":"TEME","MEAN_ELEMENT_THEORY":"SGP4","CENTER_NAME":"EARTH","SEMIMAJOR_AXIS":"6917.860","OBJECT_ID":"2022-104B","RA_OF_ASC_NODE":"340.2434","EPHEMERIS_TYPE":"0","COUNTRY_CODE":"US","PERIOD":"95.437","RCS_SIZE":"LARGE","LAUNCH_DATE":"2022-08-28"},{"TLE_LINE2":"2 53590  53.2176 340.3255 0001253  78.8817 281.2316 15.08834524 22209","OBJECT_TYPE":"PAYLOAD","NORAD_CAT_ID":"53590","MEAN_ELEMENT_THEORY":"SGP4","REF_FRAME":"TEME","OBJECT_NAME":"STARLINK-4689","APOAPSIS":"540.629","PERIOD":"95.438","LAUNCH_DATE":"2022-08-28","RCS_SIZE":"LARGE","OBJECT_ID":"2022-104C","SEMIMAJOR_AXIS":"6917.897","CENTER_NAME":"EARTH","RA_OF_ASC_NODE":"340.3255","EPHEMERIS_TYPE":"0","COUNTRY_CODE":"US","ECCENTRICITY":"0.00012530","MEAN_MOTION":"15.08834524","TLE_LINE1":"1 53590U 22104C   23020.60286127  .00021514  00000-0  13659-2 0  9999","EPOCH":"2023-01-20T14:28:07.213728","MEAN_MOTION_DOT":"0.00021514","INCLINATION":"53.2176","CLASSIFICATION_TYPE":"U","ARG_OF_PERICENTER":"78.8817","TIME_SYSTEM":"UTC","DECAY_DATE":null,"REV_AT_EPOCH":"2220","BSTAR":"0.00136590000000","PERIAPSIS":"538.895","ELEMENT_SET_NO":"999","FILE":"3756137","SITE":"AFETR","MEAN_MOTION_DDOT":"0.0000000000000","MEAN_ANOMALY":"281.2316","GP_ID":"223553902"},{"TLE_LINE2":"2 53591  53.2167 341.7899 0001392  97.9725 262.1426 15.08828564 23199","OBJECT_TYPE":"PAYLOAD","NORAD_CAT_ID":"53591","MEAN_ELEMENT_THEORY":"SGP4","REF_FRAME":"TEME","OBJECT_NAME":"STARLINK-4674","APOAPSIS":"540.743","LAUNCH_DATE":"2022-08-28","RCS_SIZE":"LARGE","PERIOD":"95.438","RA_OF_ASC_NODE":"341.7899","SEMIMAJOR_AXIS":"6917.915","OBJECT_ID":"2022-104D","CENTER_NAME":"EARTH","COUNTRY_CODE":"US","EPHEMERIS_TYPE":"0","TLE_LINE1":"1 53591U 22104D   23020.26796674 -.00008484  00000-0 -51576-3 0  9999","ECCENTRICITY":"0.00013920","MEAN_MOTION":"15.08828564","MEAN_MOTION_DOT":"-0.00008484","EPOCH":"2023-01-20T06:25:52.326336","INCLINATION":"53.2167","ARG_OF_PERICENTER":"97.9725","CLASSIFICATION_TYPE":"U","TIME_SYSTEM":"UTC","ELEMENT_SET_NO":"999","FILE":"3755973","REV_AT_EPOCH":"2319","DECAY_DATE":null,"PERIAPSIS":"538.817","BSTAR":"-0.00051576000000","MEAN_MOTION_DDOT":"0.0000000000000","SITE":"AFETR","MEAN_ANOMALY":"262.1426","GP_ID":"223549905"},{"CLASSIFICATION_TYPE":"U","ARG_OF_PERICENTER":"100.1229","TIME_SYSTEM":"UTC","INCLINATION":"53.2188","MEAN_MOTION_DOT":"0.00016638","EPOCH":"2023-01-20T07:55:58.035648","TLE_LINE1":"1 53592U 22104E   23020.33053282  .00016638  00000-0  10611-2 0  9991","MEAN_MOTION":"15.08836395","ECCENTRICITY":"0.00023990","GP_ID":"223548672","MEAN_ANOMALY":"260.0034","MEAN_MOTION_DDOT":"0.0000000000000","SITE":"AFETR","FILE":"3755973","ELEMENT_SET_NO":"999","PERIAPSIS":"538.097","BSTAR":"0.00106110000000","REV_AT_EPOCH":"2318","DECAY_DATE":null,"APOAPSIS":"541.416","OBJECT_NAME":"STARLINK-4672","REF_FRAME":"TEME","MEAN_ELEMENT_THEORY":"SGP4","NORAD_CAT_ID":"53592","OBJECT_TYPE":"PAYLOAD","TLE_LINE2":"2 53592  53.2188 341.4732 0002399 100.1229 260.0034 15.08836395 23182","COUNTRY_CODE":"US","EPHEMERIS_TYPE":"0","RA_OF_ASC_NODE":"341.4732","CENTER_NAME":"EARTH","OBJECT_ID":"2022-104E","SEMIMAJOR_AXIS":"6917.891","LAUNCH_DATE":"2022-08-28","RCS_SIZE":"LARGE","PERIOD":"95.438"},{"INCLINATION":"53.2185","CLASSIFICATION_TYPE":"U","TIME_SYSTEM":"UTC","ARG_OF_PERICENTER":"83.6026","MEAN_MOTION_DOT":"0.00002683","EPOCH":"2023-01-20T14:12:12.093696","TLE_LINE1":"1 53593U 22104F   23020.59180664  .00002683  00000-0  18663-3 0  9996","MEAN_MOTION":"15.08834224","ECCENTRICITY":"0.00017710","MEAN_ANOMALY":"276.5168","GP_ID":"223554146","MEAN_MOTION_DDOT":"0.0000000000000","SITE":"AFETR","ELEMENT_SET_NO":"999","FILE":"3756137","REV_AT_EPOCH":"2220","DECAY_DATE":null,"BSTAR":"0.00018663000000","PERIAPSIS":"538.538","OBJECT_NAME":"STARLINK-4671","APOAPSIS":"540.988","MEAN_ELEMENT_THEORY":"SGP4","REF_FRAME":"TEME","OBJECT_TYPE":"PAYLOAD","TLE_LINE2":"2 53593  53.2185 340.2591 0001771  83.6026 276.5168 15.08834224 22204","NORAD_CAT_ID":"53593","COUNTRY_CODE":"US","EPHEMERIS_TYPE":"0","RA_OF_ASC_NODE":"340.2591","SEMIMAJOR_AXIS":"6917.898","OBJECT_ID":"2022-104F","CENTER_NAME":"EARTH","RCS_SIZE":"LARGE","LAUNCH_DATE":"2022-08-28","PERIOD":"95.438"},{"OBJECT_NAME":"STARLINK-4681","APOAPSIS":"540.925","MEAN_ELEMENT_THEORY":"SGP4","REF_FRAME":"TEME","TLE_LINE2":"2 53594  53.2174 340.2014 0001641  62.2047 297.9111 15.08825597 22203","OBJECT_TYPE":"PAYLOAD","NORAD_CAT_ID":"53594","COUNTRY_CODE":"US","EPHEMERIS_TYPE":"0","RA_OF_ASC_NODE":"340.2014","SEMIMAJOR_AXIS":"6917.924","OBJECT_ID":"2022-104G","CENTER_NAME":"EARTH","RCS_SIZE":"LARGE","LAUNCH_DATE":"2022-08-28","PERIOD":"95.438","INCLINATION":"53.2174","CLASSIFICATION_TYPE":"U","TIME_SYSTEM":"UTC","ARG_OF_PERICENTER":"62.2047","MEAN_MOTION_DOT":"0.00011453","EPOCH":"2023-01-20T13:56:16.964160","TLE_LINE1":"1 53594U 22104G   23020.58075190  .00011453  00000-0  73683-3 0  9991","MEAN_MOTION":"15.08825597","ECCENTRICITY":"0.00016410","MEAN_ANOMALY":"297.9111","GP_ID":"223554162","MEAN_MOTION_DDOT":"0.0000000000000","SITE":"AFETR","ELEMENT_SET_NO":"999","FILE":"3756138","DECAY_DATE":null,"REV_AT_EPOCH":"2220","BSTAR":"0.00073683000000","PERIAPSIS":"538.654"},{"PERIOD":"95.438","LAUNCH_DATE":"2022-08-28","RCS_SIZE":"LARGE","CENTER_NAME":"EARTH","SEMIMAJOR_AXIS":"6917.910","OBJECT_ID":"2022-104H","RA_OF_ASC_NODE":"341.4044","EPHEMERIS_TYPE":"0","COUNTRY_CODE":"US","NORAD_CAT_ID":"53595","TLE_LINE2":"2 53595  53.2176 341.4044 0001379  78.9521 281.1626 15.08830299 23180","OBJECT_TYPE":"PAYLOAD","REF_FRAME":"TEME","MEAN_ELEMENT_THEORY":"SGP4","APOAPSIS":"540.729","OBJECT_NAME":"STARLINK-4684","PERIAPSIS":"538.821","BSTAR":"0.00052559000000","DECAY_DATE":null,"REV_AT_EPOCH":"2318","FILE":"3755973","ELEMENT_SET_NO":"999","SITE":"AFETR","MEAN_MOTION_DDOT":"0.0000000000000","GP_ID":"223550398","MEAN_ANOMALY":"281.1626","ECCENTRICITY":"0.00013790","MEAN_MOTION":"15.08830299","TLE_LINE1":"1 53595U 22104H   23020.31947490  .00008084  00000-0  52559-3 0  9999","EPOCH":"2023-01-20T07:40:02.631360","MEAN_MOTION_DOT":"0.00008084","TIME_SYSTEM":"UTC","CLASSIFICATION_TYPE":"U","ARG_OF_PERICENTER":"78.9521","INCLINATION":"53.2176"},{"MEAN_MOTION_DDOT":"0.0000000000000","SITE":"AFETR","MEAN_ANOMALY":"254.6817","GP_ID":"223554166","ELEMENT_SET_NO":"999","FILE":"3756138","REV_AT_EPOCH":"2220","DECAY_DATE":null,"PERIAPSIS":"538.168","BSTAR":"0.00179210000000","MEAN_MOTION_DOT":"0.00028341","EPOCH":"2023-01-20T13:45:39.990528","INCLINATION":"53.2175","CLASSIFICATION_TYPE":"U","TIME_SYSTEM":"UTC","ARG_OF_PERICENTER":"105.4432","TLE_LINE1":"1 53596U 22104J   23020.57337952  .00028341  00000-0  17921-2 0  9995","ECCENTRICITY":"0.00023270","MEAN_MOTION":"15.08829450","RA_OF_ASC_NODE":"340.1557","OBJECT_ID":"2022-104J","SEMIMAJOR_AXIS":"6917.913","CENTER_NAME":"EARTH","COUNTRY_CODE":"US","EPHEMERIS_TYPE":"0","RCS_SIZE":"LARGE","LAUNCH_DATE":"2022-08-28","PERIOD":"95.438","OBJECT_NAME":"STARLINK-4668","APOAPSIS":"541.387","TLE_LINE2":"2 53596  53.2175 340.1557 0002327 105.4432 254.6817 15.08829450 22202","OBJECT_TYPE":"PAYLOAD","NORAD_CAT_ID":"53596","MEAN_ELEMENT_THEORY":"SGP4","REF_FRAME":"TEME"},{"LAUNCH_DATE":"2022-08-28","RCS_SIZE":"LARGE","PERIOD":"95.438","RA_OF_ASC_NODE":"340.1772","CENTER_NAME":"EARTH","SEMIMAJOR_AXIS":"6917.898","OBJECT_ID":"2022-104K","COUNTRY_CODE":"US","EPHEMERIS_TYPE":"0","NORAD_CAT_ID":"53597","OBJECT_TYPE":"PAYLOAD","TLE_LINE2":"2 53597  53.2182 340.1772 0001743  98.3440 261.7750 15.08834083 22203","REF_FRAME":"TEME","MEAN_ELEMENT_THEORY":"SGP4","APOAPSIS":"540.969","OBJECT_NAME":"STARLINK-4682","FILE":"3756138","ELEMENT_SET_NO":"999","BSTAR":"0.00144030000000","PERIAPSIS":"538.558","DECAY_DATE":null,"REV_AT_EPOCH":"2220","MEAN_MOTION_DDOT":"0.0000000000000","SITE":"AFETR","GP_ID":"223554168","MEAN_ANOMALY":"261.7750","TLE_LINE1":"1 53597U 22104K   23020.57706248  .00022705  00000-0  14403-2 0  9994","ECCENTRICITY":"0.00017430","MEAN_MOTION":"15.08834083","MEAN_MOTION_DOT":"0.00022705","EPOCH":"2023-01-20T13:50:58.198272","CLASSIFICATION_TYPE":"U","TIME_SYSTEM":"UTC","ARG_OF_PERICENTER":"98.3440","INCLINATION":"53.2182"},{"APOAPSIS":"540.883","OBJECT_NAME":"STARLINK-4676","REF_FRAME":"TEME","MEAN_ELEMENT_THEORY":"SGP4","NORAD_CAT_ID":"53598","TLE_LINE2":"2 53598  53.2145 341.3135 0001592  69.9027 290.2137 15.08828255 22857","OBJECT_TYPE":"PAYLOAD","COUNTRY_CODE":"US","EPHEMERIS_TYPE":"0","RA_OF_ASC_NODE":"341.3135","CENTER_NAME":"EARTH","SEMIMAJOR_AXIS":"6917.916","OBJECT_ID":"2022-104L","RCS_SIZE":"LARGE","LAUNCH_DATE":"2022-08-28","PERIOD":"95.438","CLASSIFICATION_TYPE":"U","TIME_SYSTEM":"UTC","ARG_OF_PERICENTER":"69.9027","INCLINATION":"53.2145","MEAN_MOTION_DOT":"0.00017170","EPOCH":"2023-01-20T07:13:30.940320","TLE_LINE1":"1 53598U 22104L   23020.30105255  .00017170  00000-0  10946-2 0  9995","MEAN_MOTION":"15.08828255","ECCENTRICITY":"0.00015920","GP_ID":"223550153","MEAN_ANOMALY":"290.2137","MEAN_MOTION_DDOT":"0.0000000000000","SITE":"AFETR","FILE":"3755973","ELEMENT_SET_NO":"999","BSTAR":"0.00109460000000","PERIAPSIS":"538.680","REV_AT_EPOCH":"2285","DECAY_DATE":null}];
